{"type": "FeatureCollection", "features": [{"type": "Feature", "properties": {"norad_id": 22675, "name": "COSMOS 2251", "group": "cosmos-2251-debris", "lat": 54.54247319990067, "lon": -33.58949652919814, "alt_km": 761.2863907136252, "timestamp": "2025-12-19T22:41:52.788233+00:00", "meta": {"OBJECT_NAME": "COSMOS 2251", "OBJECT_ID": "1993-036A", "EPOCH": "2025-12-19T05:40:39.578880", "MEAN_MOTION": 14.33206643, "ECCENTRICITY": 0.0024218, "INCLINATION": 74.0399, "RA_OF_ASC_NODE": 304.0128, "ARG_OF_PERICENTER": 24.4587, "MEAN_ANOMALY": 335.7708, "EPHEMERIS_TYPE": 0, "CLASSIFICATION_TYPE": "U", "NORAD_CAT_ID": 22675, "ELEMENT_SET_NO": 999, "REV_AT_EPOCH": 69866, "BSTAR": 3.4708e-05, "MEAN_MOTION_DOT": 7e-07, "MEAN_MOTION_DDOT": 0}, "tle": {"line1": "1 22675U 93036A   25353.23656920  .00000070  00000+0  34708-4 0  9996", "line2": "2 22675  74.0399 304.0128 0024218  24.4587 335.7708 14.33206643698661"}}, "geometry": {"type": "Point", "coordinates": [-33.58949652919814, 54.54247319990067]}}, {"type": "Feature", "properties": {"norad_id": 33757, "name": "COSMOS 2251 DEB", "group": "cosmos-2251-debris", "lat": 71.5270012333538, "lon": 9.412435481422117, "alt_km": 781.0746119043151, "timestamp": "2025-12-19T22:41:52.788257+00:00", "meta": {"OBJECT_NAME": "COSMOS 2251 DEB", "OBJECT_ID": "1993-036E", "EPOCH": "2025-12-19T06:06:39.855744", "MEAN_MOTION": 14.3258258, "ECCENTRICITY": 0.0015488, "INCLINATION": 74.0372, "RA_OF_ASC_NODE": 311.7161, "ARG_OF_PERICENTER": 323.9262, "MEAN_ANOMALY": 153.6378, "EPHEMERIS_TYPE": 0, "CLASSIFICATION_TYPE": "U", "NORAD_CAT_ID": 33757, "ELEMENT_SET_NO": 999, "REV_AT_EPOCH": 88089, "BSTAR": 3.1897e-05, "MEAN_MOTION_DOT": 6.1e-07, "MEAN_MOTION_DDOT": 0}, "tle": {"line1": "1 33757U 93036E   25353.25462796  .00000061  00000+0  31897-4 0  9993", "line2": "2 33757  74.0372 311.7161 0015488 323.9262 153.6378 14.32582580880897"}}, "geometry": {"type": "Point", "coordinates": [9.412435481422117, 71.5270012333538]}}, {"type": "Feature", "properties": {"norad_id": 33758, "name": "COSMOS 2251 DEB", "group": "cosmos-2251-debris", "lat": 20.0010413639461, "lon": 15.472578244310709, "alt_km": 723.9077325402095, "timestamp": "2025-12-19T22:41:52.788271+00:00", "meta": {"OBJECT_NAME": "COSMOS 2251 DEB", "OBJECT_ID": "1993-036F", "EPOCH": "2025-12-19T13:51:01.039104", "MEAN_MOTION": 14.51631902, "ECCENTRICITY": 0.0017268, "INCLINATION": 74.0266, "RA_OF_ASC_NODE": 202.1512, "ARG_OF_PERICENTER": 268.3857, "MEAN_ANOMALY": 125.0976, "EPHEMERIS_TYPE": 0, "CLASSIFICATION_TYPE": "U", "NORAD_CAT_ID": 33758, "ELEMENT_SET_NO": 999, "REV_AT_EPOCH": 88404, "BSTAR": 0.00051727, "MEAN_MOTION_DOT": 2.05e-05, "MEAN_MOTION_DDOT": 0}, "tle": {"line1": "1 33758U 93036F   25353.57709536  .00002050  00000+0  51727-3 0  9998", "line2": "2 33758  74.0266 202.1512 0017268 268.3857 125.0976 14.51631902884045"}}, "geometry": {"type": "Point", "coordinates": [15.472578244310709, 20.0010413639461]}}, {"type": "Feature", "properties": {"norad_id": 33760, "name": "COSMOS 2251 DEB", "group": "cosmos-2251-debris", "lat": 45.5817393418636, "lon": -74.77833738774302, "alt_km": 757.9755779698262, "timestamp": "2025-12-19T22:41:52.788284+00:00", "meta": {"OBJECT_NAME": "COSMOS 2251 DEB", "OBJECT_ID": "1993-036H", "EPOCH": "2025-12-19T06:19:06.294720", "MEAN_MOTION": 14.35676752, "ECCENTRICITY": 0.0020184, "INCLINATION": 74.0322, "RA_OF_ASC_NODE": 269.4842, "ARG_OF_PERICENTER": 6.294, "MEAN_ANOMALY": 115.6524, "EPHEMERIS_TYPE": 0, "CLASSIFICATION_TYPE": "U", "NORAD_CAT_ID": 33760, "ELEMENT_SET_NO": 999, "REV_AT_EPOCH": 88218, "BSTAR": 7.9712e-05, "MEAN_MOTION_DOT": 2.04e-06, "MEAN_MOTION_DDOT": 0}, "tle": {"line1": "1 33760U 93036H   25353.26326730  .00000204  00000+0  79712-4 0  9992", "line2": "2 33760  74.0322 269.4842 0020184   6.2940 115.6524 14.35676752882187"}}, "geometry": {"type": "Point", "coordinates": [-74.77833738774302, 45.5817393418636]}}, {"type": "Feature", "properties": {"norad_id": 33761, "name": "COSMOS 2251 DEB", "group": "cosmos-2251-debris", "lat": 23.937089189160353, "lon": 51.492986688233806, "alt_km": 764.9444312500027, "timestamp": "2025-12-19T22:41:52.788296+00:00", "meta": {"OBJECT_NAME": "COSMOS 2251 DEB", "OBJECT_ID": "1993-036J", "EPOCH": "2025-12-19T11:09:18.014112", "MEAN_MOTION": 14.42563129, "ECCENTRICITY": 0.0023215, "INCLINATION": 74.0354, "RA_OF_ASC_NODE": 239.6857, "ARG_OF_PERICENTER": 319.002, "MEAN_ANOMALY": 219.2979, "EPHEMERIS_TYPE": 0, "CLASSIFICATION_TYPE": "U", "NORAD_CAT_ID": 33761, "ELEMENT_SET_NO": 999, "REV_AT_EPOCH": 88331, "BSTAR": 0.00029325, "MEAN_MOTION_DOT": 9.5e-06, "MEAN_MOTION_DDOT": 0}, "tle": {"line1": "1 33761U 93036J   25353.46479183  .00000950  00000+0  29325-3 0  9998", "line2": "2 33761  74.0354 239.6857 0023215 319.0020 219.2979 14.42563129883312"}}, "geometry": {"type": "Point", "coordinates": [51.492986688233806, 23.937089189160353]}}, {"type": "Feature", "properties": {"norad_id": 33762, "name": "COSMOS 2251 DEB", "group": "cosmos-2251-debris", "lat": -61.82297925377718, "lon": -95.43410929546535, "alt_km": 781.3383749345239, "timestamp": "2025-12-19T22:41:52.788307+00:00", "meta": {"OBJECT_NAME": "COSMOS 2251 DEB", "OBJECT_ID": "1993-036K", "EPOCH": "2025-12-19T06:57:16.636032", "MEAN_MOTION": 14.33665658, "ECCENTRICITY": 0.0015279, "INCLINATION": 74.042, "RA_OF_ASC_NODE": 298.0514, "ARG_OF_PERICENTER": 357.9051, "MEAN_ANOMALY": 151.5769, "EPHEMERIS_TYPE": 0, "CLASSIFICATION_TYPE": "U", "NORAD_CAT_ID": 33762, "ELEMENT_SET_NO": 999, "REV_AT_EPOCH": 88141, "BSTAR": 3.7613e-05, "MEAN_MOTION_DOT": 7.8e-07, "MEAN_MOTION_DDOT": 0}, "tle": {"line1": "1 33762U 93036K   25353.28977588  .00000078  00000+0  37613-4 0  9992", "line2": "2 33762  74.0420 298.0514 0015279 357.9051 151.5769 14.33665658881416"}}, "geometry": {"type": "Point", "coordinates": [-95.43410929546535, -61.82297925377718]}}, {"type": "Feature", "properties": {"norad_id": 33764, "name": "COSMOS 2251 DEB", "group": "cosmos-2251-debris", "lat": -43.145808501523476, "lon": 94.91711439850963, "alt_km": 749.4910607909906, "timestamp": "2025-12-19T22:41:52.788319+00:00", "meta": {"OBJECT_NAME": "COSMOS 2251 DEB", "OBJECT_ID": "1993-036M", "EPOCH": "2025-12-19T10:33:02.076768", "MEAN_MOTION": 14.39523708, "ECCENTRICITY": 0.002364, "INCLINATION": 74.0335, "RA_OF_ASC_NODE": 260.2857, "ARG_OF_PERICENTER": 224.8039, "MEAN_ANOMALY": 258.528, "EPHEMERIS_TYPE": 0, "CLASSIFICATION_TYPE": "U", "NORAD_CAT_ID": 33764, "ELEMENT_SET_NO": 999, "REV_AT_EPOCH": 88253, "BSTAR": 0.00022632, "MEAN_MOTION_DOT": 6.82e-06, "MEAN_MOTION_DDOT": 0}, "tle": {"line1": "1 33764U 93036M   25353.43960737  .00000682  00000+0  22632-3 0  9994", "line2": "2 33764  74.0335 260.2857 0023640 224.8039 258.5280 14.39523708882538"}}, "geometry": {"type": "Point", "coordinates": [94.91711439850963, -43.145808501523476]}}, {"type": "Feature", "properties": {"norad_id": 33765, "name": "COSMOS 2251 DEB", "group": "cosmos-2251-debris", "lat": 73.47361648250367, "lon": -126.65349212211096, "alt_km": 570.6362270438012, "timestamp": "2025-12-19T22:41:52.788330+00:00", "meta": {"OBJECT_NAME": "COSMOS 2251 DEB", "OBJECT_ID": "1993-036N", "EPOCH": "2025-12-19T19:25:12.154080", "MEAN_MOTION": 15.10368149, "ECCENTRICITY": 0.0064938, "INCLINATION": 74.0077, "RA_OF_ASC_NODE": 158.4835, "ARG_OF_PERICENTER": 249.4126, "MEAN_ANOMALY": 174.3083, "EPHEMERIS_TYPE": 0, "CLASSIFICATION_TYPE": "U", "NORAD_CAT_ID": 33765, "ELEMENT_SET_NO": 999, "REV_AT_EPOCH": 89725, "BSTAR": 0.0011693, "MEAN_MOTION_DOT": 0.00020196, "MEAN_MOTION_DDOT": 0}, "tle": {"line1": "1 33765U 93036N   25353.80916845  .00020196  00000+0  11693-2 0  9993", "line2": "2 33765  74.0077 158.4835 0064938 249.4126 174.3083 15.10368149897258"}}, "geometry": {"type": "Point", "coordinates": [-126.65349212211096, 73.47361648250367]}}, {"type": "Feature", "properties": {"norad_id": 33766, "name": "COSMOS 2251 DEB", "group": "cosmos-2251-debris", "lat": 30.697610977841812, "lon": -67.79353219364016, "alt_km": 819.2285433907809, "timestamp": "2025-12-19T22:41:52.788340+00:00", "meta": {"OBJECT_NAME": "COSMOS 2251 DEB", "OBJECT_ID": "1993-036P", "EPOCH": "2025-12-19T15:18:58.229280", "MEAN_MOTION": 14.3495252, "ECCENTRICITY": 0.0064516, "INCLINATION": 74.1857, "RA_OF_ASC_NODE": 122.452, "ARG_OF_PERICENTER": 323.9139, "MEAN_ANOMALY": 35.7667, "EPHEMERIS_TYPE": 0, "CLASSIFICATION_TYPE": "U", "NORAD_CAT_ID": 33766, "ELEMENT_SET_NO": 999, "REV_AT_EPOCH": 87844, "BSTAR": 0.00036101, "MEAN_MOTION_DOT": 1.026e-05, "MEAN_MOTION_DDOT": 0}, "tle": {"line1": "1 33766U 93036P   25353.63817395  .00001026  00000+0  36101-3 0  9998", "line2": "2 33766  74.1857 122.4520 0064516 323.9139  35.7667 14.34952520878447"}}, "geometry": {"type": "Point", "coordinates": [-67.79353219364016, 30.697610977841812]}}, {"type": "Feature", "properties": {"norad_id": 33768, "name": "COSMOS 2251 DEB", "group": "cosmos-2251-debris", "lat": -64.22771545023537, "lon": 64.51131425520771, "alt_km": 1154.6747615402464, "timestamp": "2025-12-19T22:41:52.788351+00:00", "meta": {"OBJECT_NAME": "COSMOS 2251 DEB", "OBJECT_ID": "1993-036R", "EPOCH": "2025-12-19T00:46:59.056608", "MEAN_MOTION": 13.58460151, "ECCENTRICITY": 0.03666324, "INCLINATION": 74.067, "RA_OF_ASC_NODE": 209.7119, "ARG_OF_PERICENTER": 6.0838, "MEAN_ANOMALY": 103.298, "EPHEMERIS_TYPE": 0, "CLASSIFICATION_TYPE": "U", "NORAD_CAT_ID": 33768, "ELEMENT_SET_NO": 999, "REV_AT_EPOCH": 83381, "BSTAR": 0.0002745073, "MEAN_MOTION_DOT": 2.89e-06, "MEAN_MOTION_DDOT": 0}, "tle": {"line1": "1 33768U 93036R   25353.03262797  .00000289  00000+0  27451-3 0  9992", "line2": "2 33768  74.0670 209.7119 0366632   6.0838 103.2980 13.58460151833813"}}, "geometry": {"type": "Point", "coordinates": [64.51131425520771, -64.22771545023537]}}]}